*******************************************************************************
Ephemeris / WWW_USER Tue Feb 19 21:46:42 2019 Pasadena, USA      / Horizons    
*******************************************************************************
Target body name: Parker Solar Probe (spacecraft) (-96) {source: spp_nom_20180812_2025083}
Center body name: Earth (399)                     {source: DE431mx}
Center-site name: Green Bank (GBT)
*******************************************************************************
Start time      : A.D. 2019-Feb-20 19:15:00.0000 UT      
Stop  time      : A.D. 2019-Feb-21 07:15:00.0000 UT      
Step-size       : 1 minutes
*******************************************************************************
Target pole/equ : No model available
Target radii    : (unavailable)                                                
Center geodetic : 280.160200,38.4330940,0.8760930 {E-lon(deg),Lat(deg),Alt(km)}
Center cylindric: 280.160200,5003.37558,3943.7589 {E-lon(deg),Dxy(km),Dz(km)}
Center pole/equ : High-precision EOP model        {East-longitude positive}
Center radii    : 6378.1 x 6378.1 x 6356.8 km     {Equator, meridian, pole}    
Target primary  : Earth
Vis. interferer : MOON (R_eq= 1737.400) km        {source: DE431mx}
Rel. light bend : Sun, EARTH                      {source: DE431mx}
Rel. lght bnd GM: 1.3271E+11, 3.9860E+05 km^3/s^2                              
Atmos refraction: NO (AIRLESS)
RA format       : HMS
Time format     : CAL 
RTS-only print  : NO       
EOP file        : eop.190218.p190512                                           
EOP coverage    : DATA-BASED 1962-JAN-20 TO 2019-FEB-18. PREDICTS-> 2019-MAY-11
Units conversion: 1 au= 149597870.700 km, c= 299792.458 km/s, 1 day= 86400.0 s 
Table cut-offs 1: Elevation (-90.0deg=NO ),Airmass (>38.000=NO), Daylight (NO )
Table cut-offs 2: Solar elongation (  0.0,180.0=NO ),Local Hour Angle( 0.0=NO )
Table cut-offs 3: RA/DEC angular rate (     0.0=NO )                           
*******************************************************************************************************************
 Date__(UT)__HR:MN     R.A._(ICRF/J2000.0)_DEC dRA*cosD d(DEC)/dt            delta      deldot    S-O-T /r    S-T-O
*******************************************************************************************************************
$$SOE
 2019-Feb-20 22:30 *   22 44 24.68 -09 36 29.3 120.1274  49.88512 1.78504093775507 -12.2707494   7.3520 /T   8.9412
 2019-Feb-20 22:31 *   22 44 24.82 -09 36 28.4 120.1319  49.88586 1.78503601603024 -12.2705313   7.3519 /T   8.9411
 2019-Feb-20 22:32 *   22 44 24.95 -09 36 27.6 120.1365  49.88660 1.78503109439160 -12.2703196   7.3518 /T   8.9411
 2019-Feb-20 22:33 *   22 44 25.09 -09 36 26.8 120.1411  49.88733 1.78502617283664 -12.2701141   7.3517 /T   8.9410
 2019-Feb-20 22:34 *   22 44 25.22 -09 36 25.9 120.1457  49.88806 1.78502125136281 -12.2699150   7.3517 /T   8.9410
 2019-Feb-20 22:35 *   22 44 25.36 -09 36 25.1 120.1503  49.88879 1.78501632996756 -12.2697222   7.3516 /T   8.9409
 2019-Feb-20 22:36 *   22 44 25.49 -09 36 24.3 120.1549  49.88951 1.78501140864835 -12.2695358   7.3515 /T   8.9409
 2019-Feb-20 22:37 *   22 44 25.63 -09 36 23.5 120.1595  49.89023 1.78500648740265 -12.2693557   7.3514 /T   8.9408
 2019-Feb-20 22:38 *   22 44 25.76 -09 36 22.6 120.1641  49.89095 1.78500156622787 -12.2691820   7.3513 /T   8.9408
 2019-Feb-20 22:39 *   22 44 25.90 -09 36 21.8 120.1687  49.89166 1.78499664512149 -12.2690147   7.3512 /T   8.9407
 2019-Feb-20 22:40 *   22 44 26.03 -09 36 21.0 120.1734  49.89238 1.78499172408093 -12.2688538   7.3511 /T   8.9407
 2019-Feb-20 22:41 *   22 44 26.17 -09 36 20.1 120.1780  49.89308 1.78498680310361 -12.2686993   7.3510 /T   8.9406
 2019-Feb-20 22:42 *   22 44 26.31 -09 36 19.3 120.1826  49.89379 1.78498188218697 -12.2685512   7.3509 /T   8.9406
 2019-Feb-20 22:43 *   22 44 26.44 -09 36 18.5 120.1873  49.89449 1.78497696132843 -12.2684096   7.3508 /T   8.9405
 2019-Feb-20 22:44 *   22 44 26.58 -09 36 17.6 120.1920  49.89519 1.78497204052542 -12.2682744   7.3507 /T   8.9405
 2019-Feb-20 22:45 *   22 44 26.71 -09 36 16.8 120.1966  49.89589 1.78496711977535 -12.2681456   7.3506 /T   8.9404
 2019-Feb-20 22:46 *   22 44 26.85 -09 36 16.0 120.2013  49.89658 1.78496219907562 -12.2680233   7.3505 /T   8.9404
 2019-Feb-20 22:47 *   22 44 26.98 -09 36 15.1 120.2060  49.89727 1.78495727842366 -12.2679074   7.3504 /T   8.9403
 2019-Feb-20 22:48 *   22 44 27.12 -09 36 14.3 120.2107  49.89796 1.78495235781685 -12.2677980   7.3503 /T   8.9403
 2019-Feb-20 22:49 *   22 44 27.25 -09 36 13.5 120.2154  49.89865 1.78494743725261 -12.2676952   7.3502 /T   8.9402
 2019-Feb-20 22:50 *   22 44 27.39 -09 36 12.7 120.2201  49.89933 1.78494251672833 -12.2675988   7.3501 /T   8.9402
 2019-Feb-20 22:51 *   22 44 27.52 -09 36 11.8 120.2248  49.90001 1.78493759624140 -12.2675089   7.3501 /T   8.9401
 2019-Feb-20 22:52 *   22 44 27.66 -09 36 11.0 120.2295  49.90068 1.78493267578921 -12.2674255   7.3500 /T   8.9401
 2019-Feb-20 22:53 *   22 44 27.80 -09 36 10.2 120.2342  49.90135 1.78492775536914 -12.2673487   7.3499 /T   8.9400
 2019-Feb-20 22:54 *   22 44 27.93 -09 36 09.3 120.2389  49.90202 1.78492283497859 -12.2672784   7.3498 /T   8.9400
 2019-Feb-20 22:55 *   22 44 28.07 -09 36 08.5 120.2436  49.90269 1.78491791461492 -12.2672146   7.3497 /T   8.9399
 2019-Feb-20 22:56 *   22 44 28.20 -09 36 07.7 120.2484  49.90335 1.78491299427549 -12.2671574   7.3496 /T   8.9399
 2019-Feb-20 22:57 *   22 44 28.34 -09 36 06.8 120.2531  49.90401 1.78490807395771 -12.2671067   7.3495 /T   8.9398
 2019-Feb-20 22:58 *   22 44 28.47 -09 36 06.0 120.2578  49.90467 1.78490315365892 -12.2670626   7.3494 /T   8.9398
 2019-Feb-20 22:59 *   22 44 28.61 -09 36 05.2 120.2626  49.90532 1.78489823337650 -12.2670251   7.3493 /T   8.9397
 2019-Feb-20 23:00 *   22 44 28.74 -09 36 04.3 120.2674  49.90598 1.78489331310780 -12.2669942   7.3492 /T   8.9397
 2019-Feb-20 23:01 *   22 44 28.88 -09 36 03.5 120.2721  49.90662 1.78488839285017 -12.2669698   7.3491 /T   8.9396
 2019-Feb-20 23:02 *   22 44 29.02 -09 36 02.7 120.2769  49.90727 1.78488347260098 -12.2669521   7.3490 /T   8.9396
 2019-Feb-20 23:03 C   22 44 29.15 -09 36 01.9 120.2816  49.90791 1.78487855235757 -12.2669410   7.3489 /T   8.9395
 2019-Feb-20 23:04 C   22 44 29.29 -09 36 01.0 120.2864  49.90855 1.78487363211730 -12.2669364   7.3488 /T   8.9395
 2019-Feb-20 23:05 C   22 44 29.42 -09 36 00.2 120.2912  49.90919 1.78486871187749 -12.2669386   7.3487 /T   8.9394
 2019-Feb-20 23:06 C   22 44 29.56 -09 35 59.4 120.2960  49.90982 1.78486379163551 -12.2669473   7.3486 /T   8.9394
 2019-Feb-20 23:07 C   22 44 29.69 -09 35 58.5 120.3008  49.91045 1.78485887138869 -12.2669627   7.3485 /T   8.9393
 2019-Feb-20 23:08 C   22 44 29.83 -09 35 57.7 120.3056  49.91107 1.78485395113436 -12.2669847   7.3484 /T   8.9393
 2019-Feb-20 23:09 C   22 44 29.96 -09 35 56.9 120.3104  49.91170 1.78484903086986 -12.2670134   7.3484 /T   8.9392
 2019-Feb-20 23:10 C   22 44 30.10 -09 35 56.0 120.3152  49.91232 1.78484411059251 -12.2670487   7.3483 /T   8.9392
 2019-Feb-20 23:11 C   22 44 30.24 -09 35 55.2 120.3200  49.91293 1.78483919029965 -12.2670907   7.3482 /T   8.9391
 2019-Feb-20 23:12 C   22 44 30.37 -09 35 54.4 120.3248  49.91355 1.78483426998861 -12.2671394   7.3481 /T   8.9391
 2019-Feb-20 23:13 C   22 44 30.51 -09 35 53.5 120.3296  49.91416 1.78482934965669 -12.2671947   7.3480 /T   8.9390
 2019-Feb-20 23:14 C   22 44 30.64 -09 35 52.7 120.3344  49.91477 1.78482442930120 -12.2672568   7.3479 /T   8.9390
 2019-Feb-20 23:15 C   22 44 30.78 -09 35 51.9 120.3393  49.91537 1.78481950891950 -12.2673255   7.3478 /T   8.9389
 2019-Feb-20 23:16 C   22 44 30.91 -09 35 51.1 120.3441  49.91597 1.78481458850887 -12.2674010   7.3477 /T   8.9389
 2019-Feb-20 23:17 C   22 44 31.05 -09 35 50.2 120.3489  49.91657 1.78480966806664 -12.2674831   7.3476 /T   8.9388
 2019-Feb-20 23:18 C   22 44 31.19 -09 35 49.4 120.3538  49.91717 1.78480474759010 -12.2675720   7.3475 /T   8.9388
 2019-Feb-20 23:19 C   22 44 31.32 -09 35 48.6 120.3586  49.91776 1.78479982707658 -12.2676675   7.3474 /T   8.9387
 2019-Feb-20 23:20 C   22 44 31.46 -09 35 47.7 120.3634  49.91835 1.78479490652338 -12.2677698   7.3473 /T   8.9387
 2019-Feb-20 23:21 C   22 44 31.59 -09 35 46.9 120.3683  49.91893 1.78478998592779 -12.2678788   7.3472 /T   8.9386
 2019-Feb-20 23:22 C   22 44 31.73 -09 35 46.1 120.3731  49.91952 1.78478506528711 -12.2679946   7.3471 /T   8.9386
 2019-Feb-20 23:23 C   22 44 31.86 -09 35 45.2 120.3780  49.92010 1.78478014459864 -12.2681171   7.3470 /T   8.9385
 2019-Feb-20 23:24 C   22 44 32.00 -09 35 44.4 120.3829  49.92067 1.78477522385969 -12.2682463   7.3469 /T   8.9385
 2019-Feb-20 23:25 C   22 44 32.14 -09 35 43.6 120.3877  49.92125 1.78477030306754 -12.2683823   7.3468 /T   8.9384
 2019-Feb-20 23:26 C   22 44 32.27 -09 35 42.7 120.3926  49.92182 1.78476538221950 -12.2685251   7.3467 /T   8.9384
 2019-Feb-20 23:27 C   22 44 32.41 -09 35 41.9 120.3974  49.92238 1.78476046131283 -12.2686746   7.3467 /T   8.9383
 2019-Feb-20 23:28 C   22 44 32.54 -09 35 41.1 120.4023  49.92295 1.78475554034483 -12.2688308   7.3466 /T   8.9383
 2019-Feb-20 23:29 C   22 44 32.68 -09 35 40.3 120.4072  49.92351 1.78475061931280 -12.2689939   7.3465 /T   8.9382
 2019-Feb-20 23:30 N   22 44 32.81 -09 35 39.4 120.4121  49.92407 1.78474569821401 -12.2691637   7.3464 /T   8.9382
 2019-Feb-20 23:31 N   22 44 32.95 -09 35 38.6 120.4169  49.92462 1.78474077704576 -12.2693402   7.3463 /T   8.9381
 2019-Feb-20 23:32 N   22 44 33.09 -09 35 37.8 120.4218  49.92517 1.78473585580528 -12.2695236   7.3462 /T   8.9381
 2019-Feb-20 23:33 N   22 44 33.22 -09 35 36.9 120.4267  49.92572 1.78473093448992 -12.2697138   7.3461 /T   8.9380
 2019-Feb-20 23:34 N   22 44 33.36 -09 35 36.1 120.4316  49.92627 1.78472601309691 -12.2699107   7.3460 /T   8.9380
